{"spkid": "20504034", "covariance": {"labels": ["e", "q", "tp", "node", "peri", "i"], "data": [["2.633746662799723E-16", "-8.71905855030421E-16", "-1.924722615747823E-14", "-2.941608053588324E-14", "1.565697209314144E-14", "3.73127213595593E-14"], ["-8.71905855030421E-16", "2.887075588887384E-15", "5.968482586817717E-14", "9.793603069099221E-14", "-5.34351981715858E-14", "-1.228418307878016E-13"], ["-1.924722615747823E-14", "5.968482586817717E-14", "2.924407687807962E-11", "-3.462008002344245E-12", "1.641238143994264E-11", "-7.033809844205031E-12"], ["-2.941608053588324E-14", "9.793603069099221E-14", "-3.462008002344245E-12", "7.806569668886534E-12", "-1.348081556583335E-11", "7.282742137955049E-12"], ["1.565697209314144E-14", "-5.34351981715858E-14", "1.641238143994264E-11", "-1.348081556583335E-11", "4.060563727861011E-11", "1.429029694835207E-12"], ["3.73127213595593E-14", "-1.228418307878016E-13", "-7.033809844205031E-12", "7.282742137955049E-12", "1.429029694835207E-12", "1.307398603336533E-10"]], "elements": [{"name": "e", "sigma": 1.62288220854125e-08, "value": ".8317480708215774", "title": "eccentricity", "units": null, "label": "e"}, {"label": "q", "units": "au", "value": ".5622647116700198", "title": "perihelion distance", "sigma": 5.37315139269999e-08, "name": "q"}, {"title": "time of perihelion passage", "value": "2458208.269003777095", "units": "TDB", "sigma": 5.40777929265605e-06, "name": "tp", "label": "tp"}, {"label": "node", "title": "longitude of the ascending node", "value": "80.67053187444827", "units": "deg", "name": "om", "sigma": 2.79402392060028e-06}, {"label": "peri", "title": "argument of perihelion", "value": "95.52754469174081", "units": "deg", "name": "w", "sigma": 6.3722552741247e-06}, {"title": "inclination", "value": "35.48367253303767", "units": "deg", "name": "i", "sigma": 1.14341532407806e-05, "label": "i"}], "epoch": "2458467.5"}, "elements": [{"label": "e", "title": "eccentricity", "value": ".8320030590647224", "units": null, "name": "e", "sigma": "1.6015E-8"}, {"label": "a", "sigma": "6.8963E-9", "name": "a", "units": "au", "value": "3.341831569446146", "title": "semi-major axis"}, {"label": "q", "sigma": "5.2981E-8", "name": "q", "value": ".5614174807878902", "title": "perihelion distance", "units": "au"}, {"label": "i", "name": "i", "sigma": "1.1355E-5", "units": "deg", "value": "35.60473015563974", "title": "inclination; angle with respect to x-y ecliptic plane"}, {"label": "node", "name": "om", "sigma": "2.9332E-6", "units": "deg", "value": "80.2103474454711", "title": "longitude of the ascending node"}, {"units": "deg", "value": "95.80133409270776", "title": "argument of perihelion", "name": "w", "sigma": "6.3699E-6", "label": "peri"}, {"sigma": "6.1799E-7", "name": "ma", "units": "deg", "title": "mean anomaly", "value": "123.225712645004", "label": "M"}, {"label": "tp", "sigma": "2.7608E-6", "name": "tp", "units": "TDB", "value": "2460436.709766787821", "title": "time of perihelion passage"}, {"label": "period", "name": "per", "sigma": "6.9071E-6", "units": "d", "value": "2231.388872130271", "title": "sidereal orbital period"}, {"sigma": "4.994E-10", "name": "n", "units": "deg/d", "value": ".1613344964189563", "title": "mean motion", "label": "n"}, {"value": "6.122245658104401", "title": "aphelion distance", "units": "au", "sigma": "1.2634E-8", "name": "ad", "label": "Q"}], "epoch": "2461200.5"}